[{"OBJECT_NAME":"HULIANWANG DIGUI-47","OBJECT_ID":"2025-162H","EPOCH":"2026-03-09T22:42:29.102688","MEAN_MOTION":13.29333141,"ECCENTRICITY":0.00010559,"INCLINATION":50.0014,"RA_OF_ASC_NODE":261.4543,"ARG_OF_PERICENTER":93.7813,"MEAN_ANOMALY":266.318,"EPHEMERIS_TYPE":0,"CLASSIFICATION_TYPE":"U","NORAD_CAT_ID":65050,"ELEMENT_SET_NO":999,"REV_AT_EPOCH":3016,"BSTAR":0.00010326756,"MEAN_MOTION_DOT":-7.6e-7,"MEAN_MOTION_DDOT":0},{"OBJECT_NAME":"JASON-1 DEB","OBJECT_ID":"2001-055F","EPOCH":"2026-03-08T21:42:34.029792","MEAN_MOTION":13.16737354,"ECCENTRICITY":0.00635518,"INCLINATION":65.9959,"RA_OF_ASC_NODE":344.4071,"ARG_OF_PERICENTER":56.116,"MEAN_ANOMALY":17.1572,"EPHEMERIS_TYPE":0,"CLASSIFICATION_TYPE":"U","NORAD_CAT_ID":35414,"ELEMENT_SET_NO":999,"REV_AT_EPOCH":13959,"BSTAR":0.012619535,"MEAN_MOTION_DOT":4.826e-5,"MEAN_MOTION_DDOT":0}]
